[{"OBJECT_NAME":"KINEIS-1D","OBJECT_ID":"2024-114D","EPOCH":"2026-03-10T00:18:20.784384","MEAN_MOTION":14.76114357,"ECCENTRICITY":0.00024808,"INCLINATION":97.9968,"RA_OF_ASC_NODE":90.2039,"ARG_OF_PERICENTER":123.4456,"MEAN_ANOMALY":236.6991,"EPHEMERIS_TYPE":0,"CLASSIFICATION_TYPE":"U","NORAD_CAT_ID":60082,"ELEMENT_SET_NO":999,"REV_AT_EPOCH":9249,"BSTAR":0.00015372971,"MEAN_MOTION_DOT":1.01e-5,"MEAN_MOTION_DDOT":0},{"OBJECT_NAME":"CZ-6A DEB","OBJECT_ID":"2022-151QN","EPOCH":"2026-03-08T08:47:22.606368","MEAN_MOTION":14.57010757,"ECCENTRICITY":0.00917316,"INCLINATION":98.6258,"RA_OF_ASC_NODE":119.6672,"ARG_OF_PERICENTER":262.2263,"MEAN_ANOMALY":96.8511,"EPHEMERIS_TYPE":0,"CLASSIFICATION_TYPE":"U","NORAD_CAT_ID":54901,"ELEMENT_SET_NO":999,"REV_AT_EPOCH":17455,"BSTAR":0.0022406919,"MEAN_MOTION_DOT":0.00010631,"MEAN_MOTION_DDOT":0}]
